NORAD_CAT_ID,OBJECT_NAME,OBJECT_TYPE,EPOCH,MEAN_MOTION,ECCENTRICITY,INCLINATION,RA_OF_ASC_NODE,ARG_OF_PERICENTER,MEAN_ANOMALY,BSTAR,MEAN_MOTION_DOT,MEAN_MOTION_DDOT,TLE_LINE0,TLE_LINE1,TLE_LINE2,SEMIMAJOR_AXIS,PERIOD,APOGEE,PERIGEE,DECAYED
49161.0,STARLINK-3080,PAYLOAD,2022-04-06 22:00:00,14.98304553,0.0003119,69.9988,306.9733,280.5909,271.5546,0.0016664,0.00019834,0.0,0 STARLINK-3080,1 49161U 21082AH  22096.91667824  .00019834  00000-0  16664-2 0  9996,2 49161  69.9988 306.9733 0003119 280.5909 271.5546 14.98304553 32445,6950.272,96.109,574.304,569.969,0.0
49161.0,STARLINK-3080,PAYLOAD,2022-04-07 14:00:01,14.98329039,0.0003021,69.9989,305.2922,274.1138,272.9604,0.00068564,8.097e-05,0.0,0 STARLINK-3080,1 49161U 21082AH  22097.58334491  .00008097  00000-0  68564-3 0  9997,2 49161  69.9989 305.2922 0003021 274.1138 272.9604 14.98329039  3605,6950.196,96.107,574.161,569.961,0.0
49161.0,STARLINK-3080,PAYLOAD,2022-04-07 20:00:01,14.98326658,0.0003087,69.9989,304.6617,278.9186,176.2722,-0.00027918,-3.422e-05,0.0,0 STARLINK-3080,1 49161U 21082AH  22097.83334491 -.00003422  00000-0 -27918-3 0  9992,2 49161  69.9989 304.6617 0003087 278.9186 176.2722 14.98326658 32586,6950.203,96.107,574.214,569.923,0.0
49161.0,STARLINK-3080,PAYLOAD,2022-04-07 22:00:00,14.98312193,0.0003084,69.9989,304.4516,280.8416,263.723,0.0025267,0.00030171,0.0,0 STARLINK-3080,1 49161U 21082AH  22097.91667824  .00030171  00000-0  25267-2 0  9993,2 49161  69.9989 304.4516 0003084 280.8416 263.7230 14.98312193  3568,6950.248000000001,96.108,574.256,569.97,0.0
49161.0,STARLINK-3080,PAYLOAD,2022-04-08 14:00:03,14.98346176,0.0003026,69.999,302.7703,273.6658,265.9842,0.00051595,6.071e-05,0.0,0 STARLINK-3080,1 49161U 21082AH  22098.58336806  .00006071  00000-0  51595-3 0  9996,2 49161  69.9990 302.7703 0003026 273.6658 265.9842 14.98346176 32690,6950.143,96.106,574.111,569.905,0.0
49161.0,STARLINK-3080,PAYLOAD,2022-04-08 22:00:00,14.98340324,0.000314,69.9989,301.9298,280.0111,257.0233,-8.054e-05,-1.054e-05,0.0,0 STARLINK-3080,1 49161U 21082AH  22098.91667824 -.00001054  00000-0 -80540-4 0  9991,2 49161  69.9989 301.9298 0003140 280.0111 257.0233 14.98340324  3638,6950.161,96.106,574.2080000000002,569.844,0.0
49161.0,STARLINK-3080,PAYLOAD,2022-04-09 06:00:00,14.98351923,0.0003147,69.9986,301.0891,276.8937,257.6306,-0.0054956,-0.00065098,0.0,0 STARLINK-3080,1 49161U 21082AH  22099.25001157 -.00065098  00000-0 -54956-2 0  9998,2 49161  69.9986 301.0891 0003147 276.8937 257.6306 14.98351923 32794,6950.125,96.106,574.177,569.803,0.0
49161.0,STARLINK-3080,PAYLOAD,2022-04-09 14:00:01,14.98330918,0.0003183,69.999,300.2486,272.717,259.2808,-9.3981e-05,-1.214e-05,0.0,0 STARLINK-3080,1 49161U 21082AH  22099.58334491 -.00001214  00000-0 -93981-4 0  9997,2 49161  69.9990 300.2486 0003183 272.7170 259.2808 14.98330918 32846,6950.19,96.107,574.2669999999998,569.8430000000002,0.0
49161.0,STARLINK-3080,PAYLOAD,2022-04-09 22:00:00,14.98309105,0.0003264,69.9989,299.4081,278.905,250.5814,0.0025864,0.00030888,0.0,0 STARLINK-3080,1 49161U 21082AH  22099.91667824  .00030888  00000-0  25864-2 0  9993,2 49161  69.9989 299.4081 0003264 278.9050 250.5814 14.98309105  3583,6950.2580000000025,96.108,574.391,569.854,0.0
49161.0,STARLINK-3080,PAYLOAD,2022-04-10 14:00:01,14.983479699999998,0.0003262,69.999,297.7270000000001,272.4159,252.0212,-0.00056203,-6.796e-05,0.0,0 STARLINK-3080,1 49161U 21082AH  22100.58334491 -.00006796  00000-0 -56203-3 0  9995,2 49161  69.9990 297.7270 0003262 272.4159 252.0212 14.98347970  3584,6950.137,96.106,574.269,569.735,0.0
49161.0,STARLINK-3080,PAYLOAD,2022-04-10 22:00:00,14.98326124,0.0003283,69.9988,296.8864,278.7182,243.2254,0.0021027,0.00025084,0.0,0 STARLINK-3080,1 49161U 21082AH  22100.91667824  .00025084  00000-0  21027-2 0  9995,2 49161  69.9988 296.8864 0003283 278.7182 243.2254 14.98326124 33048,6950.205,96.107,574.352,569.788,0.0
49161.0,STARLINK-3080,PAYLOAD,2022-04-11 14:00:01,14.98335509,0.0003172,69.9998,295.2054,272.7129,244.1891,-0.0012661,-0.0001517,0.0,0 STARLINK-3080,1 49161U 21082AH  22101.58334491 -.00015170  00000-0 -12661-2 0  9991,2 49161  69.9998 295.2054 0003172 272.7129 244.1891 14.98335509 33140,6950.176,96.107,574.245,569.836,0.0
49161.0,STARLINK-3080,PAYLOAD,2022-04-11 22:00:00,14.98301663,0.0003196,70.0005,294.3649,279.0752,235.3123,0.003215,0.00038451,0.0,0 STARLINK-3080,1 49161U 21082AH  22101.91667824  .00038451  00000-0  32150-2 0  9997,2 49161  70.0005 294.3649 0003196 279.0752 235.3123 14.98301663  3578,6950.281,96.109,574.367,569.924,0.0
49161.0,STARLINK-3080,PAYLOAD,2022-04-12 14:00:01,14.98331485,0.000318,70.0007,292.6956,275.3286,233.9857,-0.00056447,-6.822e-05,0.0,0 STARLINK-3080,1 49161U 21082AH  22102.58334491 -.00006822  00000-0 -56447-3 0  9997,2 49161  70.0007 292.6956 0003180 275.3286 233.9857 14.98331485  3591,6950.188,96.107,574.263,569.8430000000002,0.0
49161.0,STARLINK-3080,PAYLOAD,2022-04-12 22:00:00,14.98306271,0.0003166,70.0006,291.8437,279.6459,227.1621,0.0033281,0.0003982,0.0,0 STARLINK-3080,1 49161U 21082AH  22102.91667824  .00039820  00000-0  33281-2 0  9995,2 49161  70.0006 291.8437 0003166 279.6459 227.1621 14.98306271 33343,6950.266,96.109,574.332,569.931,0.0
49161.0,STARLINK-3080,PAYLOAD,2022-04-13 14:00:03,14.98352395,0.0003104,70.0005,290.1627,273.4442,228.436,-0.0020408,-0.00024373,0.0,0 STARLINK-3080,1 49161U 21082AH  22103.58336806 -.00024373  00000-0 -20408-2 0  9998,2 49161  70.0005 290.1627 0003104 273.4442 228.4360 14.98352395 33444,6950.124,96.106,574.146,569.831,0.0
49161.0,STARLINK-3080,PAYLOAD,2022-04-13 22:00:00,14.98316658,0.0003147,70.0003,289.3222,279.8274,219.4329,0.0035083,0.00042005,0.0,0 STARLINK-3080,1 49161U 21082AH  22103.91667824  .00042005  00000-0  35083-2 0  9997,2 49161  70.0003 289.3222 0003147 279.8274 219.4329 14.98316658  3582,6950.234,96.108,574.286,569.9119999999998,0.0
49161.0,STARLINK-3080,PAYLOAD,2022-04-14 14:00:01,14.98360441,0.0003115,70.0003,287.6411,272.8714,221.3554,-0.0021813,-0.00026044,0.0,0 STARLINK-3080,1 49161U 21082AH  22104.58334491 -.00026044  00000-0 -21813-2 0  9995,2 49161  70.0003 287.6411 0003115 272.8714 221.3554 14.98360441 33595,6950.099,96.105,574.129,569.799,0.0
49161.0,STARLINK-3080,PAYLOAD,2022-04-14 22:00:00,14.98335248,0.0003223,70.0001,286.8004,278.7545,212.9848,-0.00020478,-2.536e-05,0.0,0 STARLINK-3080,1 49161U 21082AH  22104.91667824 -.00002536  00000-0 -20478-3 0  9998,2 49161  70.0001 286.8004 0003223 278.7545 212.9848 14.98335248  3607,6950.177,96.107,574.2819999999998,569.802,0.0
49161.0,STARLINK-3080,PAYLOAD,2022-04-15 11:50:03,14.98342411,0.0002698,69.999,285.3468,273.1603,86.9248,0.00015282,1.731e-05,0.0,0 STARLINK-3080,1 49161U 21082AH  22105.49309403  .00001731  00000-0  15282-3 0  9999,2 49161  69.9990 285.3468 0002698 273.1603  86.9248 14.98342411 33727,6950.155,96.106,573.895,570.144,0.0
49161.0,STARLINK-3080,PAYLOAD,2022-04-15 13:26:11,14.98340947,0.0002802,69.9989,285.1781,271.7144,88.3694,0.00013427,1.51e-05,0.0,0 STARLINK-3080,1 49161U 21082AH  22105.55985458  .00001510  00000-0  13427-3 0  9990,2 49161  69.9989 285.1781 0002802 271.7144  88.3694 14.98340947 33736,6950.159000000002,96.106,573.971,570.077,0.0
49161.0,STARLINK-3080,PAYLOAD,2022-04-15 22:00:00,14.98294558,0.000303,70.0,284.2785,273.2823,210.9726,0.0037356,0.00044724,0.0,0 STARLINK-3080,1 49161U 21082AH  22105.91667824  .00044724  00000-0  37356-2 0  9994,2 49161  70.0000 284.2785 0003030 273.2823 210.9726 14.98294558 33782,6950.302,96.109,574.273,570.062,0.0
49161.0,STARLINK-3080,PAYLOAD,2022-04-16 14:00:01,14.98345195,0.000306,70.0003,282.5974,266.9638,212.2066,-0.0029199,-0.00034774,0.0,0 STARLINK-3080,1 49161U 21082AH  22106.58334491 -.00034774  00000-0 -29199-2 0  9991,2 49161  70.0003 282.5974 0003060 266.9638 212.2066 14.98345195 33889,6950.146,96.106,574.138,569.884,0.0
49161.0,STARLINK-3080,PAYLOAD,2022-04-16 22:00:01,14.98302381,0.0003077,70.0002,281.7568,273.0203,203.7019,0.0036909,0.00044194,0.0,0 STARLINK-3080,1 49161U 21082AH  22106.91668981  .00044194  00000-0  36909-2 0  9994,2 49161  70.0002 281.7568 0003077 273.0203 203.7019 14.98302381  3580,6950.278,96.109,574.2819999999998,570.005,0.0
49161.0,STARLINK-3080,PAYLOAD,2022-04-17 06:00:00,14.98308397,0.0003065,70.0003,280.9162,267.9683,206.1693,0.0020992,0.0002503,0.0,0 STARLINK-3080,1 49161U 21082AH  22107.25001157  .00025030  00000-0  20992-2 0  9991,2 49161  70.0003 280.9162 0003065 267.9683 206.1693 14.98308397 33988,6950.26,96.108,574.255,569.994,0.0
49161.0,STARLINK-3080,PAYLOAD,2022-04-17 14:00:01,14.98355379,0.0003103,70.0006,280.0757,267.3796,204.2179,-0.0034363,-0.00040883,0.0,0 STARLINK-3080,1 49161U 21082AH  22107.58334491 -.00040883  00000-0 -34363-2 0  9999,2 49161  70.0006 280.0757 0003103 267.3796 204.2179 14.98355379  3598,6950.114000000001,96.105,574.136,569.823,0.0
49161.0,STARLINK-3080,PAYLOAD,2022-04-17 22:00:00,14.98314406,0.0003083,70.0005,279.2351,273.336,195.7641,0.0036659,0.00043905,0.0,0 STARLINK-3080,1 49161U 21082AH  22107.91667824  .00043905  00000-0  36659-2 0  9991,2 49161  70.0005 279.2351 0003083 273.3360 195.7641 14.98314406  3581,6950.241,96.108,574.249,569.9630000000002,0.0
49161.0,STARLINK-3080,PAYLOAD,2022-04-18 06:00:00,14.98316277,0.0003046,70.0006,278.3946,268.1048,198.4875,0.0027407,0.0003275,0.0,0 STARLINK-3080,1 49161U 21082AH  22108.25001157  .00032750  00000-0  27407-2 0  9997,2 49161  70.0006 278.3946 0003046 268.1048 198.4875 14.98316277 34138,6950.235,96.108,574.217,569.9830000000002,0.0
49161.0,STARLINK-3080,PAYLOAD,2022-04-18 14:00:01,14.98369308,0.0003104,70.001,277.5542,268.1331,195.9327,-0.0037982,-0.00045168,0.0,0 STARLINK-3080,1 49161U 21082AH  22108.58334491 -.00045168  00000-0 -37982-2 0  9991,2 49161  70.0010 277.5542 0003104 268.1331 195.9327 14.98369308  3599,6950.071,96.104,574.094,569.779,0.0
